OBJECT_NAME,OBJECT_ID,EPOCH,MEAN_MOTION,ECCENTRICITY,INCLINATION,RA_OF_ASC_NODE,ARG_OF_PERICENTER,MEAN_ANOMALY,EPHEMERIS_TYPE,CLASSIFICATION_TYPE,NORAD_CAT_ID,ELEMENT_SET_NO,REV_AT_EPOCH,BSTAR,MEAN_MOTION_DOT,MEAN_MOTION_DDOT
STARLINK-6031,2023-078AV,2026-06-07T03:53:58.795584,14.98324814,.00033048,69.9991,118.8121,263.6362,96.4421,0,U,56810,999,16608,.77313718E-4,.829E-5,0
STARLINK-6065,2023-078AX,2026-06-06T04:39:54.116640,14.98325633,.00031013,69.9998,101.1909,268.4158,91.6646,0,U,56812,999,16643,.12660948E-3,.1418E-4,0
STARLINK-6056,2023-078AY,2026-06-07T03:24:07.385760,14.98340733,.00039166,69.9990,118.7392,266.7941,93.2770,0,U,56813,999,16608,-.15054545E-3,-.189E-4,0
STARLINK-6059,2023-078AZ,2026-06-07T00:23:39.089760,14.98330626,.00030812,69.9991,119.1047,256.5157,103.5659,0,U,56814,999,16606,.92335642E-4,.1009E-4,0
STARLINK-6067,2023-078BB,2026-06-06T13:58:26.171040,14.98320737,.0003474,69.9992,100.1301,255.7274,104.3500,0,U,56816,999,16649,-.10173E-3,-.1306E-4,0
STARLINK-6028,2023-078BD,2026-06-07T03:23:53.592864,14.98337653,.0002633,70.0017,118.7384,270.7340,89.3517,0,U,56818,999,16677,.27616309E-3,.3204E-4,0
STARLINK-30119,2023-079A,2026-06-06T17:36:04.708512,15.27578584,.0001255,43.0009,324.4110,254.9323,105.1390,0,U,56823,999,16693,.22193954E-4,.349E-5,0
STARLINK-30120,2023-079B,2026-06-07T03:21:20.969856,15.27586601,.00021379,43.0036,322.3025,281.5780,78.4832,0,U,56824,999,16688,-.10605962E-4,-.554E-5,0
STARLINK-30084,2023-079C,2026-06-07T03:28:32.469600,15.27590240,.00012309,43.0047,321.4875,283.8935,76.1779,0,U,56825,999,16657,.48082115E-4,.1062E-4,0
STARLINK-30114,2023-079D,2026-06-06T17:24:55.031616,15.27583544,.00025386,43.0087,324.1645,260.7284,99.3281,0,U,56826,999,16681,.4930049E-4,.1094E-4,0
STARLINK-30151,2023-079E,2026-06-07T04:11:05.247456,15.27592903,.00019216,43.0059,321.6946,269.9717,90.0914,0,U,56827,999,16657,.82684415E-4,.2014E-4,0
STARLINK-30152,2023-079F,2026-06-07T04:16:38.422272,15.27597041,.00021849,43.0075,321.7344,276.8569,83.2034,0,U,56828,999,16657,.98985164E-4,.2464E-4,0
STARLINK-30128,2023-079K,2026-06-07T02:08:10.972896,15.27588987,.00011146,43.0023,296.3542,278.5769,81.4957,0,U,56832,999,16045,.56146029E-4,.1284E-4,0
STARLINK-30131,2023-079L,2026-06-06T16:51:04.896000,15.23807279,.00037596,43.0019,302.2061,286.3260,73.7177,0,U,56833,999,16675,.11029612E-2,.26938E-3,0
STARLINK-30069,2023-079M,2026-06-01T22:39:17.977248,15.27588054,.00021708,43.0042,347.8346,254.3895,105.6717,0,U,56834,999,16581,.24274857E-3,.6425E-4,0
STARLINK-30144,2023-079N,2026-06-06T17:14:42.639648,15.37594976,.00141656,42.9925,317.3816,302.9552,56.9941,0,U,56835,999,16658,.5438075E-3,.20338E-3,0
STARLINK-30142,2023-079P,2026-06-01T18:13:29.867808,15.27573999,.00015529,43.0050,349.0297,262.7118,97.3557,0,U,56836,999,16578,.34098223E-4,.676E-5,0
STARLINK-30133,2023-079Q,2026-06-07T03:26:42.091872,15.27569094,.00019989,43.0034,321.4637,275.2755,84.7868,0,U,56837,999,16657,.10087837E-4,.15E-6,0
STARLINK-30123,2023-079R,2026-06-05T13:15:42.126624,15.27582540,.00006477,42.9996,257.7402,269.0301,91.0476,0,U,56838,999,16718,.54740128E-4,.1245E-4,0
STARLINK-30076,2023-079S,2026-06-01T22:36:45.487296,15.27569726,.00010363,43.0054,351.2209,297.7475,62.3271,0,U,56839,999,16577,-.21693984E-4,-.859E-5,0
STARLINK-30073,2023-079T,2026-06-07T06:00:04.999968,15.27573510,.00010056,43.0009,146.5887,247.3755,7.3111,0,U,56840,999,580,.29522231E-3,.7869E-4,0
STARLINK-30078,2023-079U,2026-06-06T01:27:45.442368,15.27575794,.0001633,43.0034,280.2917,274.8911,85.1755,0,U,56841,999,16696,.61279E-6,-.245E-5,0
STARLINK-30135,2023-079V,2026-06-02T11:30:19.590624,15.27582277,.00014397,43.0033,348.2873,259.4568,100.6121,0,U,56842,999,16585,.55606109E-4,.1268E-4,0
STARLINK-30137,2023-079W,2026-06-07T03:54:26.552448,15.27551769,.00020163,43.0004,321.5214,262.8061,97.2561,0,U,56843,999,16657,-.25268379E-3,-.7203E-4,0
STARLINK-30136,2023-079X,2026-06-06T14:07:22.562112,15.27576949,.0003107,43.0076,324.9366,262.5755,97.4744,0,U,56844,999,16648,.14991E-4,.15E-5,0
2023-081A,2023-081A,2026-06-07T00:02:44.577312,15.23160103,.00010126,97.3698,228.2826,114.8049,245.3293,0,U,56846,999,16646,.43513496E-3,.10217E-3,0
2023-081W,2023-081W,2026-06-06T23:17:42.341280,15.24865777,.00117468,97.2896,221.7684,54.8526,305.3811,0,U,56866,999,16647,.3337195E-3,.8242E-4,0
LONGJIANG 3,2023-082A,2026-06-07T05:58:49.801728,15.42031036,.00049388,49.1075,96.3976,356.9299,3.1619,0,U,56874,999,16783,.53260461E-3,.22824E-3,0
STARLINK-6206,2023-083A,2026-06-07T02:39:03.404448,15.27582100,.00022425,43.0075,300.4108,263.5007,96.5589,0,U,56876,999,16530,.35134261E-4,.704E-5,0
STARLINK-6209,2023-083B,2026-06-06T16:13:03.923904,15.27578164,.00024668,43.0027,302.3085,270.5672,89.4897,0,U,56877,999,16524,.24636627E-4,.415E-5,0
STARLINK-6182,2023-083C,2026-06-07T02:48:18.705888,15.27579190,.00020399,43.0046,300.4626,271.0133,89.0485,0,U,56878,999,16530,.21731927E-4,.336E-5,0
STARLINK-5707,2023-083D,2026-06-06T00:00:02.999808,15.27570421,.00022419,43.0046,306.8166,271.7192,38.1250,0,U,56879,999,566,.44240346E-3,.11928E-3,0
STARLINK-6177,2023-083E,2026-06-06T16:48:13.126752,15.27585919,.00011276,43.0000,302.4954,274.4772,85.5951,0,U,56880,999,16524,.44824341E-4,.972E-5,0
STARLINK-5853,2023-083F,2026-06-07T02:59:24.054144,15.27583851,.00021022,43.0036,300.5118,266.2207,93.8404,0,U,56881,999,16530,.36713642E-4,.748E-5,0
STARLINK-6175,2023-083G,2026-06-07T02:03:54.800352,15.27577569,.00010237,43.0011,300.2275,267.6465,92.4269,0,U,56882,999,16530,.80582492E-4,.1956E-4,0
STARLINK-6171,2023-083H,2026-06-07T01:52:48.520704,15.27577282,.00013106,43.0020,300.1704,271.7621,88.3081,0,U,56883,999,16530,.11579925E-4,.57E-6,0
STARLINK-5515,2023-083J,2026-06-05T16:37:01.116192,15.27584662,.00030511,43.0048,307.8237,266.2766,93.7737,0,U,56884,999,16509,.87905281E-4,.2157E-4,0
STARLINK-5095,2023-083K,2026-06-07T01:58:21.328320,15.27582464,.00019234,43.0019,300.1966,218.5880,141.4834,0,U,56885,999,16530,.63512435E-4,.1486E-4,0
STARLINK-5496,2023-083L,2026-06-06T16:14:57.342048,15.27595393,.00010815,43.0021,302.3173,245.3013,114.7726,0,U,56886,999,16524,-.73906586E-4,-.2296E-4,0
STARLINK-6180,2023-083M,2026-06-06T16:32:55.221792,15.27574731,.0001506,43.0024,306.6767,261.7476,98.3205,0,U,56887,999,16519,.42520198E-4,.908E-5,0
STARLINK-6181,2023-083N,2026-06-07T02:34:39.097344,15.27578760,.00014396,43.0033,303.7994,274.8805,85.1882,0,U,56888,999,16526,.20178507E-4,.293E-5,0
STARLINK-6169,2023-083P,2026-06-06T16:18:36.860256,15.27580846,.00014531,43.0020,302.3295,270.0947,89.9738,0,U,56889,999,16523,.3365925E-4,.664E-5,0
STARLINK-5528,2023-083Q,2026-06-07T02:08:44.493504,15.27582858,.00016673,43.0033,303.6594,276.3867,83.6795,0,U,56890,999,16526,.37891366E-4,.781E-5,0
STARLINK-6213,2023-083R,2026-06-06T16:24:09.755136,15.27580569,.00022365,43.0045,302.3585,270.6999,89.3597,0,U,56891,999,16524,.675352E-5,-.77E-6,0
STARLINK-6219,2023-083S,2026-06-07T03:00:32.970240,15.27583067,.00024622,43.0056,303.9262,267.3463,92.7107,0,U,56892,999,16526,.23832389E-4,.393E-5,0
STARLINK-6216,2023-083T,2026-06-07T01:54:39.252672,15.27581440,.00010649,43.0021,300.1767,263.7353,96.3377,0,U,56893,999,16542,.34225928E-4,.68E-5,0
STARLINK-6144,2023-083U,2026-06-07T02:17:59.827776,15.27588504,.00014261,43.0018,303.7085,271.0977,88.9711,0,U,56894,999,16538,.12853483E-3,.3277E-4,0
STARLINK-6208,2023-083V,2026-06-07T02:55:00.096096,15.27580872,.00021453,43.0043,303.8995,267.1029,92.9578,0,U,56895,999,16526,.34626374E-4,.69E-5,0
STARLINK-6202,2023-083W,2026-06-07T02:49:27.181344,15.27578010,.00016994,43.0045,303.8698,270.1605,89.9052,0,U,56896,999,16537,.10167519E-4,.17E-6,0
STARLINK-6200,2023-083X,2026-06-07T02:45:45.275904,15.27577248,.0001495,43.0035,303.8547,274.4387,85.6294,0,U,56897,999,16537,.23879712E-4,.395E-5,0
STARLINK-6205,2023-083Y,2026-06-06T03:11:07.477152,15.27578537,.0001761,43.0055,302.5553,272.2857,87.7793,0,U,56898,999,16530,.1477E-4,.144E-5,0
STARLINK-6203,2023-083Z,2026-06-07T01:38:42.885888,15.27574568,.00013991,43.0031,296.6852,275.1578,84.9114,0,U,56899,999,16544,.47587298E-4,.1047E-4,0
STARLINK-6207,2023-083AA,2026-06-07T01:38:56.701248,15.27584660,.0000552,43.0033,286.2539,107.6635,252.4277,0,U,56900,999,16543,.55056379E-4,.1254E-4,0
STARLINK-6185,2023-083AB,2026-06-06T03:00:01.436832,15.27576868,.000193,43.0047,302.5016,273.7267,86.3363,0,U,56901,999,16530,.58125E-5,-.102E-5,0
STARLINK-6195,2023-083AC,2026-06-07T01:42:38.534112,15.27577478,.00009573,43.0032,286.2728,274.3747,85.6995,0,U,56902,999,16557,.8845832E-5,-.19E-6,0
STARLINK-6192,2023-083AD,2026-06-07T01:53:30.152544,15.27586396,.00010894,43.0020,296.7550,265.4745,94.5983,0,U,56903,999,16545,.60228862E-4,.1396E-4,0
STARLINK-6193,2023-083AE,2026-06-07T01:13:02.712576,15.27587794,.00010986,43.0016,286.1129,274.9972,85.0754,0,U,56904,999,16546,.8089176E-4,.1965E-4,0
STARLINK-6183,2023-083AF,2026-06-05T02:50:41.338464,15.27576583,.00018043,43.0066,296.5647,257.6087,102.4563,0,U,56905,999,16517,-.22038042E-4,-.869E-5,0
STARLINK-6098,2023-083AG,2026-06-05T15:35:02.771232,15.27580541,.00017457,43.0035,293.6595,270.3938,89.6714,0,U,56906,999,16525,.37969115E-4,.783E-5,0
STARLINK-6110,2023-083AH,2026-06-07T02:00:56.021472,15.27582367,.00019868,43.0059,285.5122,285.6398,74.4234,0,U,56907,999,16558,.38763808E-4,.804E-5,0
STARLINK-6186,2023-083AJ,2026-06-06T15:27:44.521920,15.27581514,.0001323,43.0016,288.2236,269.8522,90.2178,0,U,56908,999,16540,.35837E-4,.724E-5,0
STARLINK-5999,2023-083AK,2026-06-07T01:48:17.075232,15.27499664,.00011336,43.0057,286.2972,262.6241,97.4482,0,U,56909,999,16557,-.38853689E-3,-.10912E-3,0
STARLINK-6179,2023-083AL,2026-06-07T01:03:46.702656,15.27580854,.00013437,43.0030,286.0653,270.8404,89.2293,0,U,56910,999,16545,.55047482E-4,.1253E-4,0
STARLINK-6116,2023-083AM,2026-06-06T15:16:38.417664,15.27582201,.000177,43.0018,288.1649,255.9553,104.1102,0,U,56911,999,16540,.40254E-4,.846E-5,0
